IRIDIUM 155             
1 43573U 18061E   22133.90197704  .00000053  00000+0  11936-4 0  9997
2 43573  86.3935 321.5893 0001992  98.6214 261.5208 14.34217789199032
IRIDIUM 154             
1 43574U 18061F   22133.88295198  .00000060  00000+0  14293-4 0  9998
2 43574  86.3940 321.6594 0002098  81.8966 278.2467 14.34216966199087
IRIDIUM 163             
1 43575U 18061G   22133.79413519  .00000049  00000+0  10569-4 0  9997
2 43575  86.3936 321.6577 0002557  88.5791 271.5698 14.34219552199046
IRIDIUM 156             
1 43576U 18061H   22133.90831893  .00000050  00000+0  10793-4 0  9991
2 43576  86.3937 321.6153 0002356  95.9977 264.1487 14.34219385199052
IRIDIUM 164             
1 43577U 18061J   22133.88927827  .00000036  00000+0  57780-5 0  9994
2 43577  86.3939 321.6409 0002250  83.4648 276.6804 14.34219384199093
IRIDIUM 159             
1 43578U 18061K   22133.78779257  .00000050  00000+0  10791-4 0  9992
2 43578  86.3936 321.6513 0002163  83.8106 276.3336 14.34217445199041
IRIDIUM 180             
1 43922U 19002A   22133.85708945  .00000202  00000+0  64936-4 0  9994
2 43922  86.3968 258.4484 0002446  79.4068 280.7403 14.34214670174702
IRIDIUM 176             
1 43923U 19002B   22133.86937326  .00000701  00000+0  10731-3 0  9990
2 43923  86.6103 258.4775 0002366  97.7727 262.3759 14.72252530179249
IRIDIUM 168             
1 43924U 19002C   22133.85073874  .00000196  00000+0  62767-4 0  9994
2 43924  86.3971 258.4862 0002159  87.6410 272.5033 14.34216023174646
IRIDIUM 173             
1 43925U 19002D   22133.62872003  .00000203  00000+0  65559-4 0  9992
2 43925  86.3967 258.5288 0002259  89.1243 271.0212 14.34223618174592
IRIDIUM 169             
1 43926U 19002E   22133.87267142  .00000260  00000+0  78561-4 0  9992
2 43926  86.4188 290.0461 0003481 199.6818 160.4246 14.38606351175240
IRIDIUM 172             
1 43927U 19002F   22133.90148805  .00000205  00000+0  66132-4 0  9991
2 43927  86.3967 258.4182 0002256  87.2603 272.8851 14.34214778174643
IRIDIUM 175             
1 43928U 19002G   22133.86316534  .00000303  00000+0  44177-4 0  9997
2 43928  86.6108 258.3096 0002374  91.3784 268.7705 14.72242684179235
IRIDIUM 171             
1 43929U 19002H   22133.88245257  .00000202  00000+0  65043-4 0  9996
2 43929  86.3976 258.5663 0002126  88.0192 272.1247 14.34215415174638
IRIDIUM 170             
1 43930U 19002J   22133.87560261  .00000714  00000+0  10942-3 0  9997
2 43930  86.6106 258.4808 0001839  89.8291 270.3137 14.72248453179258
IRIDIUM 167             
1 43931U 19002K   22133.87611758  .00000197  00000+0  63415-4 0  9995
2 43931  86.3968 258.4379 0002270  81.8104 278.3349 14.34214930174631
